NORAD_CAT_ID,OBJECT_NAME,OBJECT_TYPE,EPOCH,MEAN_MOTION,ECCENTRICITY,INCLINATION,RA_OF_ASC_NODE,ARG_OF_PERICENTER,MEAN_ANOMALY,BSTAR,MEAN_MOTION_DOT,MEAN_MOTION_DDOT,TLE_LINE0,TLE_LINE1,TLE_LINE2,SEMIMAJOR_AXIS,PERIOD,APOGEE,PERIGEE,DECAYED
50804.0,STARLINK-3323,PAYLOAD,2022-01-30 22:00:00,15.73389738,0.0001854,53.2166,80.1973,28.1688,248.4919,-0.0045264,-0.00597646,0.0,0 STARLINK-3323,1 50804U 22001B   22030.91667824 -.00597646  00000-0 -45264-2 0  9994,2 50804  53.2166  80.1973 0001854  28.1688 248.4919 15.73389738  3735,6727.354,91.522,350.467,347.972,0.0
50804.0,STARLINK-3323,PAYLOAD,2022-01-31 04:00:00,15.73193187,0.0002013,53.2156,78.96,32.758,220.6113,0.00031148,0.00043308,0.0,0 STARLINK-3323,1 50804U 22001B   22031.16667824  .00043308  00000-0  31148-3 0  9998,2 50804  53.2156  78.9600 0002013  32.7580 220.6113 15.73193187  5108,6727.915,91.534,351.134,348.425,0.0
50804.0,STARLINK-3323,PAYLOAD,2022-01-31 12:00:00,15.73222566,0.0002257,53.2152,77.3126,28.4138,313.8854,-0.00023278,-0.00033197,0.0,0 STARLINK-3323,1 50804U 22001B   22031.50001157 -.00033197  00000-0 -23278-3 0  9999,2 50804  53.2152  77.3126 0002257  28.4138 313.8854 15.73222566  5157,6727.831,91.532,351.214,348.177,0.0
50804.0,STARLINK-3323,PAYLOAD,2022-01-31 14:00:01,15.73212096,0.0002251,53.2149,76.9001,26.715,67.8904,-0.0001471,-0.00021227,0.0,0 STARLINK-3323,1 50804U 22001B   22031.58335648 -.00021227  00000-0 -14710-3 0  9994,2 50804  53.2149  76.9001 0002251  26.7150  67.8904 15.73212096  3729,6727.861,91.532,351.24,348.211,0.0
50804.0,STARLINK-3323,PAYLOAD,2022-01-31 22:00:01,15.7318782,0.0001991,53.2147,75.2485,28.8406,154.7122,0.00022463,0.00031006,0.0,0 STARLINK-3323,1 50804U 22001B   22031.91668981  .00031006  00000-0  22463-3 0  9998,2 50804  53.2147  75.2485 0001991  28.8406 154.7122 15.73187820  3715,6727.93,91.534,351.134,348.455,0.0
50804.0,STARLINK-3323,PAYLOAD,2022-02-01 04:00:00,15.73234371,0.0002066,53.2149,74.0114,34.2295,125.9559,-0.00037794,-0.0005341,0.0,0 STARLINK-3323,1 50804U 22001B   22032.16667824 -.00053410  00000-0 -37794-3 0  9999,2 50804  53.2149  74.0114 0002066  34.2295 125.9559 15.73234371  5264,6727.797,91.531,351.052,348.272,0.0
50804.0,STARLINK-3323,PAYLOAD,2022-02-01 14:00:01,15.73197353,0.0002338,53.2148,71.9513,28.766,332.6478,0.00010991,0.0001483,0.0,0 STARLINK-3323,1 50804U 22001B   22032.58335648  .00014830  00000-0  10991-3 0  9992,2 50804  53.2148  71.9513 0002338  28.7660 332.6478 15.73197353  3711,6727.903,91.533,351.341,348.195,0.0
50804.0,STARLINK-3323,PAYLOAD,2022-02-01 22:00:00,15.73165114,0.0001993,53.215,70.2996,26.7254,63.5675,-0.00033554,-0.00047381,0.0,0 STARLINK-3323,1 50804U 22001B   22032.91667824 -.00047381  00000-0 -33554-3 0  9992,2 50804  53.2150  70.2996 0001993  26.7254  63.5675 15.73165114  3713,6727.995,91.535,351.201,348.519,0.0
50804.0,STARLINK-3323,PAYLOAD,2022-02-02 06:00:00,15.73142065,0.0002122,53.2149,68.6507,26.0504,153.1037,7.3006e-05,9.612e-05,0.0,0 STARLINK-3323,1 50804U 22001B   22033.25001157  .00009612  00000-0  73006-4 0  9991,2 50804  53.2149  68.6507 0002122  26.0504 153.1037 15.73142065  5435,6728.06,91.537,351.353,348.49800000000016,0.0
50804.0,STARLINK-3323,PAYLOAD,2022-02-02 14:00:01,15.73142819,0.0002315,53.2143,67.0023,23.952,244.066,0.00054882,0.00076927,0.0,0 STARLINK-3323,1 50804U 22001B   22033.58334491  .00076927  00000-0  54882-3 0  9990,2 50804  53.2143  67.0023 0002315  23.9520 244.0660 15.73142819  3722,6728.058000000001,91.537,351.481,348.366,0.0
50804.0,STARLINK-3323,PAYLOAD,2022-02-02 22:00:00,15.73203812,0.0002109,53.2173,65.3511,26.4427,330.3804,6.789199999999999e-06,3.32e-06,0.0,0 STARLINK-3323,1 50804U 22001B   22033.91667824  .00000332  00000-0  67892-5 0  9990,2 50804  53.2173  65.3511 0002109  26.4427 330.3804 15.73203812  3712,6727.884,91.533,351.168,348.33,0.0
50804.0,STARLINK-3323,PAYLOAD,2022-02-03 06:00:00,15.73232923,0.0002178,53.2146,63.702,28.7906,57.0423,4.167600000000001e-05,5.24e-05,0.0,0 STARLINK-3323,1 50804U 22001B   22034.25001157  .00005240  00000-0  41676-4 0  9993,2 50804  53.2146  63.7020 0002178  28.7906  57.0423 15.73232923  5595,6727.801,91.531,351.13199999999995,348.201,0.0
50804.0,STARLINK-3323,PAYLOAD,2022-02-03 14:00:01,15.73266134,0.0002298,53.2146,62.0533,24.8906,149.9059,-0.00025519,-0.00036387,0.0,0 STARLINK-3323,1 50804U 22001B   22034.58334491 -.00036387  00000-0 -25519-3 0  9994,2 50804  53.2146  62.0533 0002298  24.8906 149.9059 15.73266134  3704,6727.706999999999,91.529,351.11800000000005,348.026,0.0
50804.0,STARLINK-3323,PAYLOAD,2022-02-03 20:00:01,15.73244236,0.0002136,53.215,60.8141,25.5039,126.1463,0.00014007,0.0001912,0.0,0 STARLINK-3323,1 50804U 22001B   22034.83335648  .00019120  00000-0  14007-3 0  9991,2 50804  53.2150  60.8141 0002136  25.5039 126.1463 15.73244236  5680,6727.769,91.531,351.071,348.19699999999995,0.0
50804.0,STARLINK-3323,PAYLOAD,2022-02-03 22:00:01,15.73225307,0.0002117,53.2149,60.4012,26.7582,237.1472,0.00042374,0.00059338,0.0,0 STARLINK-3323,1 50804U 22001B   22034.91668981  .00059338  00000-0  42374-3 0  9992,2 50804  53.2149  60.4012 0002117  26.7582 237.1472 15.73225307  3719,6727.823,91.532,351.112,348.264,0.0
50804.0,STARLINK-3323,PAYLOAD,2022-02-04 12:00:00,15.73240369,0.0002471,53.2147,57.5164,28.3319,301.2353,-2.9256e-05,-4.734e-05,0.0,0 STARLINK-3323,1 50804U 22001B   22035.50001157 -.00004734  00000-0 -29256-4 0  9991,2 50804  53.2147  57.5164 0002471  28.3319 301.2353 15.73240369  5786,6727.78,91.531,351.30800000000005,347.983,0.0
50804.0,STARLINK-3323,PAYLOAD,2022-02-04 14:00:01,15.73269807,0.0002455,53.2144,57.1035,27.6062,54.2633,-0.00055676,-0.00078282,0.0,0 STARLINK-3323,1 50804U 22001B   22035.58335648 -.00078282  00000-0 -55676-3 0  9997,2 50804  53.2144  57.1035 0002455  27.6062  54.2633 15.73269807  3710,6727.696,91.529,351.213,347.91,0.0
50804.0,STARLINK-3323,PAYLOAD,2022-02-04 20:00:01,15.73196988,0.0002018,53.2161,55.8655,28.2624,30.2614,-0.0033294,-0.00444067,0.0,0 STARLINK-3323,1 50804U 22001B   22035.83334491 -.00444067  00000-0 -33294-2 0  9999,2 50804  53.2161  55.8655 0002018  28.2624  30.2614 15.73196988  5846,6727.904,91.533,351.126,348.411,0.0
50804.0,STARLINK-3323,PAYLOAD,2022-02-04 22:00:00,15.72807411,0.0002321,53.2161,55.4526,27.3826,143.4452,0.0021807,0.00311797,0.0,0 STARLINK-3323,1 50804U 22001B   22035.91667824  .00311797  00000-0  21807-2 0  9995,2 50804  53.2161  55.4526 0002321  27.3826 143.4452 15.72807411  3697,6729.015,91.556,352.441,349.3180000000001,0.0
50804.0,STARLINK-3323,PAYLOAD,2022-02-05 03:22:34,15.73239079,0.0002602,53.2158,54.3471,47.8504,312.2737,0.00023439,0.00032459,0.0,0 STARLINK-3323,1 50804U 22001B   22036.14067967  .00032459  00000-0  23439-3 0  9992,2 50804  53.2158  54.3471 0002602  47.8504 312.2737 15.73239079  5887,6727.784000000002,91.531,351.399,347.898,0.0
50804.0,STARLINK-3323,PAYLOAD,2022-02-05 12:00:02,15.7317938,0.0002348,53.215,52.5675,22.7863,213.6599,0.00036745,0.00051222,0.0,0 STARLINK-3323,1 50804U 22001B   22036.50002315  .00051222  00000-0  36745-3 0  9991,2 50804  53.2150  52.5675 0002348  22.7863 213.6599 15.73179380  5947,6727.954000000002,91.534,351.399,348.23900000000015,0.0
50804.0,STARLINK-3323,PAYLOAD,2022-02-05 14:00:01,15.73206825,0.000235,53.2149,52.1548,22.6558,325.9492,-3.2078e-05,-5.123e-05,0.0,0 STARLINK-3323,1 50804U 22001B   22036.58334491 -.00005123  00000-0 -32078-4 0  9999,2 50804  53.2149  52.1548 0002350  22.6558 325.9492 15.73206825  3697,6727.876,91.533,351.32199999999995,348.16,0.0
50804.0,STARLINK-3323,PAYLOAD,2022-02-05 20:00:01,15.73169851,0.0002162,53.2154,50.916,26.2091,299.0956,8.4901e-05,0.00011296,0.0,0 STARLINK-3323,1 50804U 22001B   22036.83334491  .00011296  00000-0  84901-4 0  9995,2 50804  53.2154  50.9160 0002162  26.2091 299.0956 15.73169851  5990,6727.981,91.535,351.301,348.392,0.0
50804.0,STARLINK-3323,PAYLOAD,2022-02-06 06:00:00,15.73163455,0.0002394,53.2154,48.8552,27.5708,138.8443,-0.00075973,-0.00105767,0.0,0 STARLINK-3323,1 50804U 22001B   22037.25001157 -.00105767  00000-0 -75973-3 0  9999,2 50804  53.2154  48.8552 0002394  27.5708 138.8443 15.73163455  6061,6727.999,91.535,351.475,348.254,0.0
50804.0,STARLINK-3323,PAYLOAD,2022-02-06 14:00:01,15.73090111,0.0002397,53.2149,47.2061,24.7564,230.5551,0.0002623,0.0003618,0.0,0 STARLINK-3323,1 50804U 22001B   22037.58335648  .00036180  00000-0  26230-3 0  9992,2 50804  53.2149  47.2061 0002397  24.7564 230.5551 15.73090111  6119,6728.208000000001,91.54,351.686,348.461,0.0
50804.0,STARLINK-3323,PAYLOAD,2022-02-06 22:00:00,15.73075225,0.0002118,53.215,45.5551,26.9538,317.1043,0.001365,0.0019441,0.0,0 STARLINK-3323,1 50804U 22001B   22037.91667824  .00194410  00000-0  13650-2 0  9995,2 50804  53.2150  45.5551 0002118  26.9538 317.1043 15.73075225  3699,6728.251,91.54,351.541,348.691,0.0
50804.0,STARLINK-3323,PAYLOAD,2022-02-07 04:10:01,15.731803,0.0001607,53.2166,44.2831,41.1537,318.9605,0.00025193,0.00034854,0.0,0 STARLINK-3323,1 50804U 22001B   22038.17362588  .00034854  00000-0  25193-3 0  9994,2 50804  53.2166  44.2831 0001607  41.1537 318.9605 15.73180300  6207,6727.951,91.534,350.898,348.735,0.0
50804.0,STARLINK-3323,PAYLOAD,2022-02-07 14:00:01,15.73257311,0.0002301,53.2154,42.258,22.9188,138.9576,0.00022489,0.00031137,0.0,0 STARLINK-3323,1 50804U 22001B   22038.58334491  .00031137  00000-0  22489-3 0  9997,2 50804  53.2154  42.2580 0002301  22.9188 138.9576 15.73257311  3687,6727.732,91.53,351.145,348.0490000000001,0.0
50804.0,STARLINK-3323,PAYLOAD,2022-02-07 22:00:00,15.73281255,0.0002055,53.2157,40.6064,23.3439,227.5304,-0.00019895,-0.00028548,0.0,0 STARLINK-3323,1 50804U 22001B   22038.91667824 -.00028548  00000-0 -19895-3 0  9994,2 50804  53.2157  40.6064 0002055  23.3439 227.5304 15.73281255  6321,6727.6640000000025,91.528,350.911,348.146,0.0
